start=new Date('2022-08-14T00:00:00.000Z').valueOf();
sats=[{"BSTAR":"-0.00005024700000","EPOCH":"2022-08-13T18:59:43.952352","REV_AT_EPOCH":"8651","INCLINATION":"53.0529","OBJECT_TYPE":"PAYLOAD","PERIAPSIS":"546.205","MEAN_MOTION_DOT":"-0.00001030","CLASSIFICATION_TYPE":"U","OBJECT_ID":"2021-005AE","TIME_SYSTEM":"UTC","SITE":"AFETR","RCS_SIZE":"LARGE","COUNTRY_CODE":"US","PERIOD":"95.592","TLE_LINE1":"1 47377U 21005AE  22225.79148093 -.00001030  00000-0 -50247-4 0  9998","MEAN_MOTION":"15.06396974","FILE":"3535825","ECCENTRICITY":"0.00014700","DECAY_DATE":null,"EPHEMERIS_TYPE":"0","MEAN_MOTION_DDOT":"0.0000000000000","GP_ID":"210163537","NORAD_CAT_ID":"47377","CENTER_NAME":"EARTH","OBJECT_NAME":"STARLINK-2097","RA_OF_ASC_NODE":"155.0514","ARG_OF_PERICENTER":"72.4162","APOAPSIS":"548.241","MEAN_ANOMALY":"287.6988","SEMIMAJOR_AXIS":"6925.358","TLE_LINE2":"2 47377  53.0529 155.0514 0001470  72.4162 287.6988 15.06396974 86517","REF_FRAME":"TEME","LAUNCH_DATE":"2021-01-20","ELEMENT_SET_NO":"999","MEAN_ELEMENT_THEORY":"SGP4"},{"NORAD_CAT_ID":"47378","GP_ID":"210162285","MEAN_MOTION_DDOT":"0.0000000000000","EPHEMERIS_TYPE":"0","DECAY_DATE":null,"FILE":"3535825","ECCENTRICITY":"0.00015390","MEAN_ELEMENT_THEORY":"SGP4","ELEMENT_SET_NO":"999","LAUNCH_DATE":"2021-01-20","SEMIMAJOR_AXIS":"6925.381","REF_FRAME":"TEME","TLE_LINE2":"2 47378  53.0559 114.4938 0001539  85.9276 274.1889 15.06389370 87098","APOAPSIS":"548.312","MEAN_ANOMALY":"274.1889","ARG_OF_PERICENTER":"85.9276","RA_OF_ASC_NODE":"114.4938","OBJECT_NAME":"STARLINK-2098","CENTER_NAME":"EARTH","INCLINATION":"53.0559","OBJECT_TYPE":"PAYLOAD","REV_AT_EPOCH":"8709","EPOCH":"2022-08-13T22:00:11.796480","BSTAR":"0.00000259680000","TLE_LINE1":"1 47378U 21005AF  22225.91680320 -.00000243  00000-0  25968-5 0  9994","MEAN_MOTION":"15.06389370","PERIOD":"95.593","RCS_SIZE":"LARGE","COUNTRY_CODE":"US","SITE":"AFETR","TIME_SYSTEM":"UTC","OBJECT_ID":"2021-005AF","MEAN_MOTION_DOT":"-0.00000243","CLASSIFICATION_TYPE":"U","PERIAPSIS":"546.180"},{"ELEMENT_SET_NO":"999","LAUNCH_DATE":"2021-01-20","MEAN_ELEMENT_THEORY":"SGP4","RA_OF_ASC_NODE":"114.7607","CENTER_NAME":"EARTH","OBJECT_NAME":"STARLINK-2099","SEMIMAJOR_AXIS":"6925.378","REF_FRAME":"TEME","TLE_LINE2":"2 47379  53.0550 114.7607 0001628  64.6829 295.4328 15.06390421 87085","APOAPSIS":"548.370","ARG_OF_PERICENTER":"64.6829","MEAN_ANOMALY":"295.4328","NORAD_CAT_ID":"47379","DECAY_DATE":null,"FILE":"3535825","ECCENTRICITY":"0.00016280","GP_ID":"210163036","EPHEMERIS_TYPE":"0","MEAN_MOTION_DDOT":"0.0000000000000","RCS_SIZE":"LARGE","COUNTRY_CODE":"US","SITE":"AFETR","TLE_LINE1":"1 47379U 21005AG  22225.85782982 -.00002376  00000-0 -14070-3 0  9995","MEAN_MOTION":"15.06390421","PERIOD":"95.593","PERIAPSIS":"546.115","TIME_SYSTEM":"UTC","OBJECT_ID":"2021-005AG","MEAN_MOTION_DOT":"-0.00002376","CLASSIFICATION_TYPE":"U","INCLINATION":"53.0550","OBJECT_TYPE":"PAYLOAD","EPOCH":"2022-08-13T20:35:16.496448","BSTAR":"-0.00014070000000","REV_AT_EPOCH":"8708"},{"NORAD_CAT_ID":"47380","DECAY_DATE":null,"ECCENTRICITY":"0.00014790","FILE":"3535825","GP_ID":"210163287","MEAN_MOTION_DDOT":"0.0000000000000","EPHEMERIS_TYPE":"0","ELEMENT_SET_NO":"999","LAUNCH_DATE":"2021-01-20","MEAN_ELEMENT_THEORY":"SGP4","RA_OF_ASC_NODE":"124.6090","OBJECT_NAME":"STARLINK-2100","CENTER_NAME":"EARTH","REF_FRAME":"TEME","TLE_LINE2":"2 47380  53.0550 124.6090 0001479  64.6281 295.4861 15.06393526 86955","SEMIMAJOR_AXIS":"6925.368","APOAPSIS":"548.258","ARG_OF_PERICENTER":"64.6281","MEAN_ANOMALY":"295.4861","OBJECT_TYPE":"PAYLOAD","INCLINATION":"53.0550","EPOCH":"2022-08-13T21:16:24.661920","BSTAR":"0.00004014400000","REV_AT_EPOCH":"8695","COUNTRY_CODE":"US","RCS_SIZE":"LARGE","SITE":"AFETR","MEAN_MOTION":"15.06393526","TLE_LINE1":"1 47380U 21005AH  22225.88639655  .00000316  00000-0  40144-4 0  9990","PERIOD":"95.593","PERIAPSIS":"546.209","OBJECT_ID":"2021-005AH","TIME_SYSTEM":"UTC","CLASSIFICATION_TYPE":"U","MEAN_MOTION_DOT":"0.00000316"},{"NORAD_CAT_ID":"47381","ECCENTRICITY":"0.00018820","FILE":"3535825","DECAY_DATE":null,"MEAN_MOTION_DDOT":"0.0000000000000","EPHEMERIS_TYPE":"0","GP_ID":"210164038","LAUNCH_DATE":"2021-01-20","ELEMENT_SET_NO":"999","MEAN_ELEMENT_THEORY":"SGP4","CENTER_NAME":"EARTH","OBJECT_NAME":"STARLINK-2101","RA_OF_ASC_NODE":"129.6309","APOAPSIS":"548.506","MEAN_ANOMALY":"276.6552","ARG_OF_PERICENTER":"83.4651","TLE_LINE2":"2 47381  53.0555 129.6309 0001882  83.4651 276.6552 15.06403678 86887","REF_FRAME":"TEME","SEMIMAJOR_AXIS":"6925.337","OBJECT_TYPE":"PAYLOAD","INCLINATION":"53.0555","BSTAR":"0.00003704200000","EPOCH":"2022-08-13T21:39:38.011392","REV_AT_EPOCH":"8688","SITE":"AFETR","COUNTRY_CODE":"US","RCS_SIZE":"LARGE","PERIOD":"95.592","MEAN_MOTION":"15.06403678","TLE_LINE1":"1 47381U 21005AJ  22225.90252328  .00000270  00000-0  37042-4 0  9994","PERIAPSIS":"545.899","CLASSIFICATION_TYPE":"U","MEAN_MOTION_DOT":"0.00000270","OBJECT_ID":"2021-005AJ","TIME_SYSTEM":"UTC"},{"LAUNCH_DATE":"2021-01-20","ELEMENT_SET_NO":"999","MEAN_ELEMENT_THEORY":"SGP4","OBJECT_NAME":"STARLINK-2102","CENTER_NAME":"EARTH","RA_OF_ASC_NODE":"124.6617","ARG_OF_PERICENTER":"67.9991","APOAPSIS":"548.245","MEAN_ANOMALY":"292.1149","SEMIMAJOR_AXIS":"6925.397","REF_FRAME":"TEME","TLE_LINE2":"2 47382  53.0543 124.6617 0001419  67.9991 292.1149 15.06384122 86946","NORAD_CAT_ID":"47382","FILE":"3535825","ECCENTRICITY":"0.00014190","DECAY_DATE":null,"EPHEMERIS_TYPE":"0","MEAN_MOTION_DDOT":"0.0000000000000","GP_ID":"210162786","SITE":"AFETR","RCS_SIZE":"LARGE","COUNTRY_CODE":"US","PERIOD":"95.593","TLE_LINE1":"1 47382U 21005AK  22225.87902582 -.00001591  00000-0 -88007-4 0  9991","MEAN_MOTION":"15.06384122","PERIAPSIS":"546.280","MEAN_MOTION_DOT":"-0.00001591","CLASSIFICATION_TYPE":"U","TIME_SYSTEM":"UTC","OBJECT_ID":"2021-005AK","INCLINATION":"53.0543","OBJECT_TYPE":"PAYLOAD","BSTAR":"-0.00008800700000","EPOCH":"2022-08-13T21:05:47.830848","REV_AT_EPOCH":"8694"},{"NORAD_CAT_ID":"47383","EPHEMERIS_TYPE":"0","MEAN_MOTION_DDOT":"0.0000000000000","GP_ID":"210162536","ECCENTRICITY":"0.00015070","FILE":"3535825","DECAY_DATE":null,"MEAN_ELEMENT_THEORY":"SGP4","LAUNCH_DATE":"2021-01-20","ELEMENT_SET_NO":"999","APOAPSIS":"548.236","ARG_OF_PERICENTER":"72.9842","MEAN_ANOMALY":"287.1312","REF_FRAME":"TEME","TLE_LINE2":"2 47383  53.0527 114.5769 0001507  72.9842 287.1312 15.06406808 87093","SEMIMAJOR_AXIS":"6925.328","OBJECT_NAME":"STARLINK-2103","CENTER_NAME":"EARTH","RA_OF_ASC_NODE":"114.5769","OBJECT_TYPE":"PAYLOAD","INCLINATION":"53.0527","REV_AT_EPOCH":"8709","BSTAR":"0.00007282500000","EPOCH":"2022-08-13T21:32:17.196864","PERIOD":"95.592","MEAN_MOTION":"15.06406808","TLE_LINE1":"1 47383U 21005AL  22225.89742126  .00000804  00000-0  72825-4 0  9995","SITE":"AFETR","COUNTRY_CODE":"US","RCS_SIZE":"LARGE","CLASSIFICATION_TYPE":"U","MEAN_MOTION_DOT":"0.00000804","TIME_SYSTEM":"UTC","OBJECT_ID":"2021-005AL","PERIAPSIS":"546.149"},{"TLE_LINE1":"1 47384U 21005AM  22225.86430178 -.00000145  00000-0  91499-5 0  9992","MEAN_MOTION":"15.06405271","PERIOD":"95.592","RCS_SIZE":"LARGE","COUNTRY_CODE":"US","SITE":"AFETR","OBJECT_ID":"2021-005AM","TIME_SYSTEM":"UTC","MEAN_MOTION_DOT":"-0.00000145","CLASSIFICATION_TYPE":"U","PERIAPSIS":"545.873","INCLINATION":"53.0532","OBJECT_TYPE":"PAYLOAD","REV_AT_EPOCH":"8694","EPOCH":"2022-08-13T20:44:35.673792","BSTAR":"0.00000914990000","MEAN_ELEMENT_THEORY":"SGP4","ELEMENT_SET_NO":"999","LAUNCH_DATE":"2021-01-20","SEMIMAJOR_AXIS":"6925.332","REF_FRAME":"TEME","TLE_LINE2":"2 47384  53.0532 124.9591 0001913  63.7080 296.4106 15.06405271 86941","MEAN_ANOMALY":"296.4106","APOAPSIS":"548.522","ARG_OF_PERICENTER":"63.7080","RA_OF_ASC_NODE":"124.9591","CENTER_NAME":"EARTH","OBJECT_NAME":"STARLINK-2104","NORAD_CAT_ID":"47384","GP_ID":"210163788","MEAN_MOTION_DDOT":"0.0000000000000","EPHEMERIS_TYPE":"0","DECAY_DATE":null,"FILE":"3535825","ECCENTRICITY":"0.00019130"},{"NORAD_CAT_ID":"47385","GP_ID":"210163538","EPHEMERIS_TYPE":"0","MEAN_MOTION_DDOT":"0.0000000000000","DECAY_DATE":null,"ECCENTRICITY":"0.00016890","FILE":"3535825","MEAN_ELEMENT_THEORY":"SGP4","ELEMENT_SET_NO":"999","LAUNCH_DATE":"2021-01-20","REF_FRAME":"TEME","TLE_LINE2":"2 47385  53.0536 124.7406 0001689  69.3188 290.7982 15.06391082 86943","SEMIMAJOR_AXIS":"6925.376","MEAN_ANOMALY":"290.7982","APOAPSIS":"548.411","ARG_OF_PERICENTER":"69.3188","RA_OF_ASC_NODE":"124.7406","CENTER_NAME":"EARTH","OBJECT_NAME":"STARLINK-2105","OBJECT_TYPE":"PAYLOAD","INCLINATION":"53.0536","REV_AT_EPOCH":"8694","EPOCH":"2022-08-13T20:39:15.185952","BSTAR":"0.00004701400000","MEAN_MOTION":"15.06391082","TLE_LINE1":"1 47385U 21005AN  22225.86059243  .00000419  00000-0  47014-4 0  9999","PERIOD":"95.593","COUNTRY_CODE":"US","RCS_SIZE":"LARGE","SITE":"AFETR","OBJECT_ID":"2021-005AN","TIME_SYSTEM":"UTC","CLASSIFICATION_TYPE":"U","MEAN_MOTION_DOT":"0.00000419","PERIAPSIS":"546.071"},{"LAUNCH_DATE":"2021-01-20","ELEMENT_SET_NO":"999","MEAN_ELEMENT_THEORY":"SGP4","CENTER_NAME":"EARTH","OBJECT_NAME":"STARLINK-2106","RA_OF_ASC_NODE":"124.6082","APOAPSIS":"548.503","ARG_OF_PERICENTER":"70.9918","MEAN_ANOMALY":"289.1273","SEMIMAJOR_AXIS":"6925.343","TLE_LINE2":"2 47386  53.0546 124.6082 0001869  70.9918 289.1273 15.06401664 86957","REF_FRAME":"TEME","NORAD_CAT_ID":"47386","FILE":"3535825","ECCENTRICITY":"0.00018690","DECAY_DATE":null,"MEAN_MOTION_DDOT":"0.0000000000000","EPHEMERIS_TYPE":"0","GP_ID":"210162286","SITE":"AFETR","RCS_SIZE":"LARGE","COUNTRY_CODE":"US","PERIOD":"95.592","TLE_LINE1":"1 47386U 21005AP  22225.89007686  .00000785  00000-0  71573-4 0  9990","MEAN_MOTION":"15.06401664","PERIAPSIS":"545.914","MEAN_MOTION_DOT":"0.00000785","CLASSIFICATION_TYPE":"U","TIME_SYSTEM":"UTC","OBJECT_ID":"2021-005AP","INCLINATION":"53.0546","OBJECT_TYPE":"PAYLOAD","BSTAR":"0.00007157300000","EPOCH":"2022-08-13T21:21:42.640704","REV_AT_EPOCH":"8695"}];
